ACS3                    
1 59588U 24077B   24278.14740682  .00000453  00000+0  54505-3 0  9993
2 59588  97.4388 321.0969 0049394 187.3923 172.6506 13.69948898 22307
